CCSDS_OMM_VERS,COMMENT,CREATION_DATE,ORIGINATOR,OBJECT_NAME,OBJECT_ID,CENTER_NAME,REF_FRAME,TIME_SYSTEM,MEAN_ELEMENT_THEORY,EPOCH,MEAN_MOTION,ECCENTRICITY,INCLINATION,RA_OF_ASC_NODE,ARG_OF_PERICENTER,MEAN_ANOMALY,EPHEMERIS_TYPE,CLASSIFICATION_TYPE,NORAD_CAT_ID,ELEMENT_SET_NO,REV_AT_EPOCH,BSTAR,MEAN_MOTION_DOT,MEAN_MOTION_DDOT,SEMIMAJOR_AXIS,PERIOD,APOAPSIS,PERIAPSIS,OBJECT_TYPE,RCS_SIZE,COUNTRY_CODE,LAUNCH_DATE,SITE,DECAY_DATE,DECAYED,FILE,GP_ID,TLE_LINE0,TLE_LINE1,TLE_LINE2,height_km,latitude,longitude,velocity_kms,id
2.0,GENERATED VIA SPACE-TRACK.ORG API,2022-11-30T17:18:05,18 SPCS,STARLINK-4723,2022-111AA,EARTH,TEME,UTC,SGP4,2022-11-30T14:00:01.999872,15.08830446,0.0001584,53.215,238.7146,51.1853,244.8877,0,U,53797,999,130,-1.0692e-05,-4.58e-06,0.0,6917.91,95.438,540.87,538.679,PAYLOAD,LARGE,US,2022-09-11,AFETR,,0,3675646,219177125,0 STARLINK-4723,1 53797U 22111AA  22334.58335648 -.00000458  00000-0 -10692-4 0  9995,2 53797  53.2150 238.7146 0001584  51.1853 244.8877 15.08830446  1304,539.5040565236968,22.8388819303816,-77.13138284351801,7.596433384263096,632a3222358d5951a1e7f8da
2.0,GENERATED VIA SPACE-TRACK.ORG API,2022-11-30T17:18:05,18 SPCS,STARLINK-4708,2022-111D,EARTH,TEME,UTC,SGP4,2022-11-30T14:00:01.999872,15.08808391,0.0001444,53.2148,244.2767,59.5958,303.3589,0,U,53776,999,130,0.0013654,0.0002149,0.0,6917.977,95.44,540.841,538.843,PAYLOAD,LARGE,US,2022-09-11,AFETR,,0,3675646,219178159,0 STARLINK-4708,1 53776U 22111D   22334.58335648  .00021490  00000-0  13654-2 0  9998,2 53776  53.2148 244.2767 0001444  59.5958 303.3589 15.08808391  1307,545.5411216050406,52.983114303839436,9.722041779022225,7.596150413061621,632a3222358d5951a1e7f8e7
2.0,GENERATED VIA SPACE-TRACK.ORG API,2022-11-30T17:18:05,18 SPCS,STARLINK-4730,2022-111X,EARTH,TEME,UTC,SGP4,2022-11-30T14:00:01.999872,15.08806044,0.0001889,53.2151,238.9123,43.8184,152.0866,0,U,53794,999,130,0.0028404,0.00045165,0.0,6917.984,95.44,541.156,538.542,PAYLOAD,LARGE,US,2022-09-11,AFETR,,0,3675646,219177295,0 STARLINK-4730,1 53794U 22111X   22334.58335648  .00045165  00000-0  28404-2 0  9992,2 53794  53.2151 238.9123 0001889  43.8184 152.0866 15.08806044  1307,557.4242507528497,-49.50694785027197,-155.74114563084512,7.582333718612351,632a3222358d5951a1e7f8f7
2.0,GENERATED VIA SPACE-TRACK.ORG API,2022-11-30T17:18:05,18 SPCS,STARLINK-4679,2022-111K,EARTH,TEME,UTC,SGP4,2022-11-30T14:00:01.999872,15.08810486,0.0001851,53.2165,239.2318,44.9011,350.7862,0,U,53782,999,130,0.0033173,0.00052861,0.0,6917.971,95.439,541.116,538.555,PAYLOAD,LARGE,US,2022-09-11,AFETR,,0,3675646,219177479,0 STARLINK-4679,1 53782U 22111K   22334.58335648  .00052861  00000-0  33173-2 0  9999,2 53782  53.2165 239.2318 0001851  44.9011 350.7862 15.08810486  1307,543.0197392895807,38.921574305944326,48.23641883862483,7.595745620048262,632a3222358d5951a1e7f8f9
2.0,GENERATED VIA SPACE-TRACK.ORG API,2022-11-30T03:22:20,18 SPCS,STARLINK-4727,2022-111AG,EARTH,TEME,UTC,SGP4,2022-11-29T22:00:00.999936,15.7317654,0.0003632,53.2139,231.8882,10.563,150.809,0,U,53803,999,130,0.00020582,0.0002834,0.0,6727.962,91.535,352.271,347.383,PAYLOAD,LARGE,US,2022-09-11,AFETR,,0,3673849,219114079,0 STARLINK-4727,1 53803U 22111AG  22333.91667824  .00028340  00000-0  20582-3 0  9999,2 53803  53.2139 231.8882 0003632  10.5630 150.8090 15.73176540  1301,364.2596261773024,-38.753690697994756,126.28811479638367,7.6894313100554985,632a3222358d5951a1e7f8fc
2.0,GENERATED VIA SPACE-TRACK.ORG API,2022-11-14T12:06:19,18 SPCS,STARLINK-4736,2022-111U,EARTH,TEME,UTC,SGP4,2022-11-14T10:36:14.361696,16.45434721,6.38e-05,53.1753,299.3391,320.18,40.9607,0,U,53791,999,1026,0.00051043,0.17164363,1.2508e-05,6529.522,87.515,151.804,150.971,PAYLOAD,MEDIUM,US,2022-09-11,AFETR,2022-11-14,1,3654001,217696012,0 STARLINK-4736,1 53791U 22111U   22318.44183289  .17164363  12508-4  51043-3 0  9994,2 53791  53.1753 299.3391 0000638 320.1800  40.9607 16.45434721 10260,,,,,632a3222358d5951a1e7f8fd
2.0,GENERATED VIA SPACE-TRACK.ORG API,2022-11-30T17:18:05,18 SPCS,STARLINK-4462,2022-111J,EARTH,TEME,UTC,SGP4,2022-11-30T14:00:01.999872,15.08830321,0.0001819,53.2158,239.151,43.9012,31.8436,0,U,53781,999,130,0.00068681,0.00010657,0.0,6917.91,95.438,541.033,538.517,PAYLOAD,LARGE,US,2022-09-11,AFETR,,0,3675646,219178328,0 STARLINK-4462,1 53781U 22111J   22334.58335648  .00010657  00000-0  68681-3 0  9998,2 53781  53.2158 239.1510 0001819  43.9012  31.8436 15.08830321  1309,540.6473154663336,9.090105938749737,78.22326356720396,7.593545222171977,632a3222358d5951a1e7f901
2.0,GENERATED VIA SPACE-TRACK.ORG API,2022-11-30T17:18:05,18 SPCS,STARLINK-4739,2022-111V,EARTH,TEME,UTC,SGP4,2022-11-30T14:00:01.999872,15.08830485,0.0001946,53.2151,238.9496,50.0961,125.7468,0,U,53792,999,130,0.0019578,0.00031,0.0,6917.909,95.438,541.121,538.428,PAYLOAD,LARGE,US,2022-09-11,AFETR,,0,3675646,219178329,0 STARLINK-4739,1 53792U 22111V   22334.58335648  .00031000  00000-0  19578-2 0  9995,2 53792  53.2151 238.9496 0001946  50.0961 125.7468 15.08830485  1306,559.3609511903887,-53.34318540875243,172.53796740232661,7.581023330273181,632a3222358d5951a1e7f903
2.0,GENERATED VIA SPACE-TRACK.ORG API,2022-11-30T17:18:05,18 SPCS,STARLINK-4666,2022-111S,EARTH,TEME,UTC,SGP4,2022-11-30T14:00:01.999872,15.08831215,0.0001733,53.2141,238.9247,40.4642,150.2227,0,U,53789,999,130,-0.0001253,-2.281e-05,0.0,6917.907,95.438,540.971,538.573,PAYLOAD,LARGE,US,2022-09-11,AFETR,,0,3675646,219177651,0 STARLINK-4666,1 53789U 22111S   22334.58335648 -.00002281  00000-0 -12530-3 0  9994,2 53789  53.2141 238.9247 0001733  40.4642 150.2227 15.08831215  1306,558.0434576196049,-51.20634363037296,-162.8751032661217,7.582014513229513,632a3222358d5951a1e7f909
2.0,GENERATED VIA SPACE-TRACK.ORG API,2022-11-30T17:18:05,18 SPCS,STARLINK-4678,2022-111H,EARTH,TEME,UTC,SGP4,2022-11-30T14:00:01.999872,15.08816617,0.0001692,53.2152,239.3478,48.3399,287.2645,0,U,53780,999,130,0.0033892,0.0005403,0.0,6917.952,95.439,540.987,538.646,PAYLOAD,LARGE,US,2022-09-11,AFETR,,0,3675646,219177821,0 STARLINK-4678,1 53780U 22111H   22334.58335648  .00054030  00000-0  33892-2 0  9995,2 53780  53.2152 239.3478 0001692  48.3399 287.2645 15.08816617  1304,544.1566941594647,48.42187966603846,-37.82081335316067,7.596627271482852,632a3222358d5951a1e7f90a
2.0,GENERATED VIA SPACE-TRACK.ORG API,2022-11-30T17:18:05,18 SPCS,STARLINK-4734,2022-111T,EARTH,TEME,UTC,SGP4,2022-11-30T14:00:01.999872,15.08801431,0.0001757,53.2147,239.0345,53.6959,82.1592,0,U,53790,999,130,0.0027747,0.00044101,0.0,6917.998,95.44,541.079,538.648,PAYLOAD,LARGE,US,2022-09-11,AFETR,,0,3675646,219177822,0 STARLINK-4734,1 53790U 22111T   22334.58335648  .00044101  00000-0  27747-2 0  9996,2 53790  53.2147 239.0345 0001757  53.6959  82.1592 15.08801431  1303,553.1245698183629,-37.38695592780693,119.54710591830442,7.5843381446351135,632a3222358d5951a1e7f90b
2.0,GENERATED VIA SPACE-TRACK.ORG API,2022-11-30T17:18:05,18 SPCS,STARLINK-4710,2022-111AC,EARTH,TEME,UTC,SGP4,2022-11-30T14:00:01.999872,15.40879567,0.0001149,53.2174,230.5326,96.5888,356.481,0,U,53799,999,130,-0.029933,-0.01140327,0.0,6821.649,93.453,444.298,442.73,PAYLOAD,LARGE,US,2022-09-11,AFETR,,0,3675646,219177823,0 STARLINK-4710,1 53799U 22111AC  22334.58335648 -.01140327  00000-0 -29933-1 0  9993,2 53799  53.2174 230.5326 0001149  96.5888 356.4810 15.40879567  1300,449.92530987205555,-18.76912688819541,91.01444021009038,7.642459734199472,632a3222358d5951a1e7f90c
2.0,GENERATED VIA SPACE-TRACK.ORG API,2022-11-30T17:18:05,18 SPCS,STARLINK-4720,2022-111AD,EARTH,TEME,UTC,SGP4,2022-11-30T14:00:01.999872,15.40599106,0.0001131,53.2174,230.5459,88.7678,357.4799,0,U,53800,999,130,-0.030209,-0.01140131,0.0,6822.477,93.47,445.114,443.57,PAYLOAD,LARGE,US,2022-09-11,AFETR,,0,3675646,219178330,0 STARLINK-4720,1 53800U 22111AD  22334.58335648 -.01140131  00000-0 -30209-1 0  9997,2 53800  53.2174 230.5459 0001131  88.7678 357.4799 15.40599106  1306,449.15469582683363,-13.276218043920426,86.49796321213314,7.643123182635768,632a3222358d5951a1e7f910
2.0,GENERATED VIA SPACE-TRACK.ORG API,2022-11-16T09:06:12,18 SPCS,STARLINK-4638,2022-111N,EARTH,TEME,UTC,SGP4,2022-11-16T08:25:28.521120,16.38395634,0.0005146,53.1831,292.6621,125.2186,24.4073,0,U,53785,999,1044,0.0027186,0.30872265,1.2256e-05,6548.211,87.891,173.446,166.706,PAYLOAD,LARGE,US,2022-09-11,AFETR,2022-11-16,1,3658707,217925999,0 STARLINK-4638,1 53785U 22111N   22320.35102455  .30872265  12256-4  27186-2 0  9998,2 53785  53.1831 292.6621 0005146 125.2186  24.4073 16.38395634 10447,,,,,632a3222358d5951a1e7f911
2.0,GENERATED VIA SPACE-TRACK.ORG API,2022-11-30T03:22:20,18 SPCS,STARLINK-4536,2022-111L,EARTH,TEME,UTC,SGP4,2022-11-29T22:00:00.999936,15.08845022,0.0001937,53.2143,242.0653,44.7329,47.7764,0,U,53783,999,130,-0.0012542,-0.00020196,0.0,6917.865,95.437,541.07,538.39,PAYLOAD,LARGE,US,2022-09-11,AFETR,,0,3673849,219113557,0 STARLINK-4536,1 53783U 22111L   22333.91667824 -.00020196  00000-0 -12542-2 0  9995,2 53783  53.2143 242.0653 0001937  44.7329  47.7764 15.08845022  1301,543.0209952055384,-14.088958043777573,-90.5785647644833,7.591415068195601,632a3222358d5951a1e7f912
2.0,GENERATED VIA SPACE-TRACK.ORG API,2022-11-30T17:18:05,18 SPCS,STARLINK-4712,2022-111AB,EARTH,TEME,UTC,SGP4,2022-11-30T14:00:01.999872,15.08834899,0.0001465,53.2173,238.7575,65.101,210.8782,0,U,53798,999,130,0.00022683,3.323e-05,0.0,6917.896,95.438,540.774,538.748,PAYLOAD,LARGE,US,2022-09-11,AFETR,,0,3675646,219177652,0 STARLINK-4712,1 53798U 22111AB  22334.58335648  .00003323  00000-0  22683-3 0  9990,2 53798  53.2173 238.7575 0001465  65.1010 210.8782 15.08834899  1308,539.4423893242329,7.267329764658326,-89.91918491490985,7.594747463356591,632a3222358d5951a1e7f914
